     2.100          NAVIGATION                              RINEX VERSION / TYPE
fic2rin                                 10/14/2012 00:09:04 PGM / RUN BY / DATE
                                                            END OF HEADER
 3 12 10 13  1 59 44.0  .113861635327D-03  .500222085975D-11  .000000000000D+00
     .650000000000D+02 -.449062500000D+02  .568702260160D-08  .886077393983D+00
    -.241771340370D-05  .158743619686D-01  .438280403614D-05  .515373994064D+04
     .525584000000D+06 -.227242708206D-06  .148400162537D+01  .372529029846D-08
     .931956016143D+00  .284218750000D+03  .124412926225D+01 -.909145012396D-08
    -.356086260993D-09  .100000000000D+01  .170900000000D+04  .000000000000D+00
     .240000000000D+01  .000000000000D+00 -.465661287308D-08  .650000000000D+02
     .520266000000D+06  .400000000000D+01
24 12 10 13  1 59 44.0  .778585672379D-06  .159161572810D-11  .000000000000D+00
     .310000000000D+02 -.198437500000D+02  .415410160643D-08 -.563403196096D+00
    -.996515154839D-06  .743051059544D-04  .128466635942D-04  .517666623878D+04
     .525584000000D+06 -.111758708954D-07 -.480450158506D+00  .260770320892D-07
     .959598656393D+00  .126750000000D+03 -.108230117508D+01 -.767103381506D-08
    -.187150652719D-09  .100000000000D+01  .170900000000D+04  .000000000000D+00
     .240000000000D+01  .630000000000D+02  .465661287308D-08  .310000000000D+02
     .522906000000D+06  .400000000000D+01
 3 12 10 13  3 59 44.0  .113897491246D-03  .500222085975D-11  .000000000000D+00
     .660000000000D+02 -.504375000000D+02  .547915680030D-08  .193613644708D+01
    -.295042991638D-05  .158743365901D-01  .373832881451D-05  .515374257851D+04
     .532784000000D+06  .130385160446D-07  .148393636020D+01 -.368803739548D-06
     .931955580194D+00  .292906250000D+03  .124421851634D+01 -.867929009870D-08
    -.231081054025D-09  .100000000000D+01  .170900000000D+04  .000000000000D+00
     .240000000000D+01  .000000000000D+00 -.465661287308D-08  .660000000000D+02
     .525606000000D+06  .400000000000D+01
24 12 10 13  3 59 44.0  .790227204561D-06  .159161572810D-11  .000000000000D+00
     .320000000000D+02 -.300000000000D+02  .415088718683D-08  .464983290340D+00
    -.156462192535D-05  .750980107114D-04  .127125531435D-04  .517666769028D+04
     .532784000000D+06 -.111758708954D-07 -.480505361720D+00  .745058059692D-08
     .959597259306D+00  .130593750000D+03 -.107443990244D+01 -.766996234186D-08
    -.194293807403D-09  .100000000000D+01  .170900000000D+04  .000000000000D+00
     .240000000000D+01  .630000000000D+02  .465661287308D-08  .320000000000D+02
     .525606000000D+06  .400000000000D+01
 1 12 10 13  4  0  0.0  .277562532574D-03  .170530256582D-11  .000000000000D+00
     .102000000000D+03 -.115625000000D+01  .419196032626D-08  .794074644213D+00
    -.173225998878D-06  .130087730940D-02  .133812427521D-04  .515364856148D+04
     .532800000000D+06 -.931322574615D-08  .266710913228D+01  .484287738800D-07
     .960432856169D+00  .121593750000D+03  .450989628957D+00 -.786461330700D-08
    -.946467995620D-10  .100000000000D+01  .170900000000D+04  .000000000000D+00
     .340000000000D+01  .000000000000D+00  .838190317154D-08  .102000000000D+03
     .525606000000D+06  .400000000000D+01
 2 12 10 13  4  0  0.0  .405773986131D-03  .113686837722D-11  .000000000000D+00
     .630000000000D+02 -.335312500000D+02  .463340728573D-08  .176353095903D+01
    -.160187482834D-05  .114921999630D-01  .135842710733D-04  .515378522491D+04
     .532800000000D+06 -.173225998878D-06  .265040653575D+01  .147148966789D-06
     .938942583733D+00  .102343750000D+03 -.273215877800D+01 -.817426906255D-08
    -.206080012631D-09  .100000000000D+01  .170900000000D+04  .000000000000D+00
     .240000000000D+01  .000000000000D+00 -.172294676304D-07  .630000000000D+02
     .525606000000D+06  .400000000000D+01
 4 12 10 13  4  0  0.0  .145533122122D-04  .111413100967D-10  .000000000000D+00
     .370000000000D+02 -.918750000000D+01  .470805325217D-08 -.124378637766D+01
    -.284984707832D-06  .103354180465D-01  .131521373987D-04  .515367869568D+04
     .532800000000D+06  .230967998505D-06  .266711918692D+01  .987201929092D-07
     .938007697157D+00  .106218750000D+03  .913706257933D+00 -.811676666734D-08
    -.567880797372D-10  .100000000000D+01  .170900000000D+04  .000000000000D+00
     .240000000000D+01  .000000000000D+00 -.651925802231D-08  .370000000000D+02
     .525606000000D+06  .400000000000D+01
 5 12 10 13  4  0  0.0 -.359067693353D-03 -.284217094304D-11  .000000000000D+00
     .610000000000D+02  .920937500000D+02  .504842457286D-08 -.237197872088D+01
     .461004674435D-05  .297536409926D-02  .715628266335D-05  .515376559448D+04
     .532800000000D+06 -.409781932831D-07 -.256923072126D+01 -.121071934700D-06
     .950348405940D+00  .238937500000D+03  .228775384864D+00 -.841820779500D-08
     .552523014801D-09  .100000000000D+01  .170900000000D+04  .000000000000D+00
     .240000000000D+01  .000000000000D+00 -.102445483208D-07  .610000000000D+02
     .525606000000D+06  .400000000000D+01
 6 12 10 13  4  0  0.0  .486051198095D-03 -.954969436862D-11  .000000000000D+00
     .270000000000D+02 -.532812500000D+02  .529772067133D-08 -.246601372280D+01
    -.264868140221D-05  .734885362908D-02  .444985926151D-05  .515368194199D+04
     .532800000000D+06 -.145286321640D-06  .156169860457D+01  .763684511185D-07
     .938733275266D+00  .283000000000D+03 -.429170567145D+00 -.861178728694D-08
    -.271797035723D-09  .100000000000D+01  .170900000000D+04  .000000000000D+00
     .240000000000D+01  .000000000000D+00 -.512227416039D-08  .270000000000D+02
     .525606000000D+06  .400000000000D+01
 7 12 10 13  4  0  0.0  .132764223963D-03  .454747350886D-11  .000000000000D+00
     .390000000000D+02 -.205625000000D+02  .396445084958D-08  .398084857032D+00
    -.117719173431D-05  .603930477519D-02  .129677355289D-04  .515372623825D+04
     .532800000000D+06  .577419996262D-07 -.455271449735D+00  .372529029846D-07
     .976054120709D+00  .133906250000D+03 -.296017122475D+01 -.782604027170D-08
    -.220366321999D-09  .100000000000D+01  .170900000000D+04  .000000000000D+00
     .240000000000D+01  .000000000000D+00 -.111758708954D-07  .390000000000D+02
     .525606000000D+06  .400000000000D+01
 8 12 10 13  4  0  0.0  .237533822656D-05  .113686837722D-12  .000000000000D+00
     .170000000000D+02 -.110625000000D+02  .348621664349D-08 -.248670672829D+00
    -.713393092155D-06  .127709526569D-01  .135097652674D-04  .515364754295D+04
     .532800000000D+06  .141561031342D-06 -.368997800228D+00  .894069671631D-07
     .998495664404D+00  .137718750000D+03 -.291764240850D+01 -.765139013968D-08
    -.113933317209D-09  .100000000000D+01  .170900000000D+04  .000000000000D+00
     .240000000000D+01  .000000000000D+00 -.419095158577D-08  .170000000000D+02
     .525606000000D+06  .400000000000D+01
 9 12 10 13  4  0  0.0  .192020554096D-03  .272848410532D-11  .000000000000D+00
     .330000000000D+02 -.381562500000D+02  .392159192147D-08 -.196526562714D+00
    -.192038714886D-05  .172462796327D-01  .125300139189D-04  .515366681862D+04
     .532800000000D+06 -.229105353355D-06 -.479999278377D+00  .167638063431D-07
     .984727488435D+00  .153968750000D+03  .164747829101D+01 -.799354724904D-08
    -.143220251413D-09  .100000000000D+01  .170900000000D+04  .000000000000D+00
     .340000000000D+01  .000000000000D+00 -.558793544769D-08  .330000000000D+02
     .525606000000D+06  .400000000000D+01
10 12 10 13  4  0  0.0 -.550155527890D-04 -.125055521494D-11  .000000000000D+00
     .980000000000D+02  .911875000000D+02  .515771483953D-08 -.210610893859D+01
     .441260635853D-05  .117615748895D-01  .608526170254D-05  .515372524643D+04
     .532800000000D+06  .135973095894D-06 -.254847627029D+01 -.149011611938D-06
     .945195432075D+00  .251312500000D+03  .763253249750D+00 -.839177812267D-08
     .664313385605D-09  .100000000000D+01  .170900000000D+04  .000000000000D+00
     .240000000000D+01  .000000000000D+00 -.232830643654D-08  .980000000000D+02
     .525606000000D+06  .400000000000D+01
11 12 10 13  4  0  0.0 -.312240328640D-03 -.386535248253D-11  .000000000000D+00
     .700000000000D+02 -.482500000000D+02  .607811032055D-08  .553959427914D+00
    -.253878533840D-05  .136309182271D-01  .112447887659D-04  .515368418121D+04
     .532800000000D+06 -.206753611565D-06  .238703714817D+01  .502914190292D-07
     .888439796021D+00  .127093750000D+03  .110309204101D+01 -.897965975316D-08
    -.426089176896D-09  .100000000000D+01  .170900000000D+04  .000000000000D+00
     .240000000000D+01  .000000000000D+00 -.121071934700D-07  .700000000000D+02
     .525606000000D+06  .400000000000D+01
12 12 10 13  4  0  0.0  .958852469921D-04  .204636307899D-11  .000000000000D+00
     .630000000000D+02  .666875000000D+02  .430732227440D-08  .534743561530D-01
     .336021184921D-05  .398021796718D-02  .724010169506D-05  .515369591904D+04
     .532800000000D+06  .316649675369D-07  .601266607133D+00  .111758708954D-07
     .981534402013D+00  .249343750000D+03  .146352059671D+00 -.808855120634D-08
     .401802450971D-09  .100000000000D+01  .170900000000D+04  .000000000000D+00
     .240000000000D+01  .000000000000D+00 -.121071934700D-07  .630000000000D+02
     .525606000000D+06  .400000000000D+01
13 12 10 13  4  0  0.0  .174764078110D-03 -.261479726760D-11  .000000000000D+00
     .170000000000D+02 -.685312500000D+02  .445875715370D-08  .270249895512D+01
    -.341981649399D-05  .478921632748D-02  .553950667381D-05  .515360246658D+04
     .532800000000D+06  .165775418282D-06 -.142441641755D+01  .707805156708D-07
     .983821364292D+00  .284125000000D+03  .208066325751D+01 -.815891127998D-08
    -.455018953366D-09  .100000000000D+01  .170900000000D+04  .000000000000D+00
     .240000000000D+01  .000000000000D+00 -.111758708954D-07  .170000000000D+02
     .525606000000D+06  .400000000000D+01
